ONEWEB-0113             
1 48050U 21025J   24068.86183308 -.00000027  00000+0 -10960-3 0  9993
2 48050  87.8953 125.5112 0002060  95.1593 264.9771 13.13467733144582
ONEWEB-0112             
1 48051U 21025K   24068.84914378  .00000213  00000+0  54730-3 0  9999
2 48051  87.8947 125.5191 0002086 101.1309 259.0054 13.13467672144596
ONEWEB-0156             
1 48052U 21025L   24068.85866124  .00000002  00000+0 -29741-4 0  9998
2 48052  87.8951 125.5103 0002002 101.6002 258.5351 13.13467612144574
ONEWEB-0161             
1 48053U 21025M   24068.60316203  .00000404  00000+0  10723-2 0  9993
2 48053  87.8954 125.5659 0001821 105.4458 254.6872 13.13469441144475
ONEWEB-0158             
1 48054U 21025N   24068.56507087 -.00000202  00000+0 -58749-3 0  9990
2 48054  87.8949 125.5666 0002141  98.2009 261.9363 13.13469604144595
ONEWEB-0157             
1 48055U 21025P   24068.51269556  .00000100  00000+0  23920-3 0  9990
2 48055  87.8949 125.5935 0002038 107.9858 252.1493 13.13469329144534
ONEWEB-0162             
1 48056U 21025Q   24068.85708427  .00000018  00000+0  13750-4 0  9992
2 48056  87.8947 125.5220 0002049 101.3527 258.7832 13.13468631144548
ONEWEB-0155             
1 48057U 21025R   24068.42064505 -.00000205  00000+0 -59617-3 0  9999
2 48057  87.8949 125.6175 0001973 100.5404 259.5948 13.13468948144628
ONEWEB-0149             
1 48058U 21025S   24068.44128076  .00000235  00000+0  60847-3 0  9994
2 48058  87.8949 125.6106 0002219 105.2797 254.8577 13.13469007144436
ONEWEB-0148             
1 48059U 21025T   24069.16813195 -.00000072  00000+0 -23210-3 0  9992
2 48059  87.8953 125.4720 0002395 114.7740 245.3639 13.13467684144657
ONEWEB-0160             
1 48060U 21025U   24069.18401181 -.00000231  00000+0 -66840-3 0  9997
2 48060  87.8952 125.4649 0002634  81.3258 278.8170 13.13469299144607
ONEWEB-0163             
1 48061U 21025V   24068.17941595 -.00000223  00000+0 -64536-3 0  9995
2 48061  87.8951 125.6596 0001834 109.2841 250.8487 13.13469047144599
ONEWEB-0159             
1 48062U 21025W   24069.15862149  .00000181  00000+0  46088-3 0  9995
2 48062  87.8950 125.4499 0002052 107.8691 252.2662 13.13469202144649
ONEWEB-0164             
1 48063U 21025X   24068.60791662  .00000409  00000+0  10852-2 0  9998
2 48063  87.8950 125.5692 0001916  96.7802 263.3545 13.13468558144550
ONEWEB-0167             
1 48064U 21025Y   24068.56108767 -.00000197  00000+0 -57476-3 0  9992
2 48064  87.8950 125.5886 0001888 106.6793 253.4544 13.13468153144532
ONEWEB-0166             
1 48065U 21025Z   24068.43017053 -.00000037  00000+0 -13596-3 0  9994
2 48065  87.8945 125.6022 0002169 105.6770 254.4599 13.13469022144590
ONEWEB-0151             
1 48066U 21025AA  24068.43175984  .00000028  00000+0  40498-4 0  9993
2 48066  87.8950 125.6128 0001871  96.3358 263.7985 13.13469695144533
ONEWEB-0170             
1 48067U 21025AB  24068.43969223  .00000244  00000+0  63284-3 0  9998
2 48067  87.8950 125.6128 0001900  80.9703 279.1641 13.13469432144494
ONEWEB-0168             
1 48068U 21025AC  24069.18719366 -.00000185  00000+0 -54059-3 0  9999
2 48068  87.8951 125.4309 0002016 103.4725 256.6629 13.13471249144607
ONEWEB-0173             
1 48069U 21025AD  24068.41747289 -.00000329  00000+0 -93525-3 0  9991
2 48069  87.8954 125.5943 0001543 109.3212 250.8084 13.13468737144740
ONEWEB-0171             
1 48070U 21025AE  24068.91104075  .00000344  00000+0  90750-3 0  9990
2 48070  87.8952 125.5315 0001844  99.3877 260.7460 13.13468215144628
ONEWEB-0172             
1 48071U 21025AF  24068.43334175  .00000128  00000+0  31672-3 0  9992
2 48071  87.8954 125.5930 0001789 100.4935 259.6395 13.13469358145456
ONEWEB-0174             
1 48072U 21025AG  24068.41588998 -.00000319  00000+0 -90943-3 0  9995
2 48072  87.8953 125.6106 0002123 104.5513 255.5852 13.13469573144778
ONEWEB-0175             
1 48073U 21025AH  24068.44445281  .00000360  00000+0  94988-3 0  9993
2 48073  87.8947 125.5998 0001755  89.8654 270.2676 13.13469272144438
ONEWEB-0177             
1 48074U 21025AJ  24068.91421207  .00000347  00000+0  91574-3 0  9991
2 48074  87.8947 125.5126 0001854 113.9201 246.2122 13.13468365144687
ONEWEB-0178             
1 48075U 21025AK  24069.16034738  .00000118  00000+0  28895-3 0  9991
2 48075  87.8957 125.4744 0001869 107.1854 252.9480 13.13469128144767
ONEWEB-0108             
1 48076U 21025AL  24068.43493230  .00000122  00000+0  29960-3 0  9996
2 48076  87.8947 125.6059 0002252  99.2262 260.9122 13.13469587144591
ONEWEB-0169             
1 48077U 21025AM  24068.84755698  .00000246  00000+0  63848-3 0  9991
2 48077  87.8950 125.5311 0002256  99.3828 260.7556 13.13467713143305
ONEWEB-0176             
1 48210U 21031A   24068.81008506  .00000042  00000+0  78112-4 0  9998
2 48210  87.8897  94.9635 0001938  92.9388 267.1964 13.14502240139224
ONEWEB-0184             
1 48211U 21031B   24068.78310785 -.00000151  00000+0 -44216-3 0  9990
2 48211  87.8892  94.9563 0001303  61.9681 298.1580 13.14500431139192
ONEWEB-0179             
1 48212U 21031C   24069.13358617  .00000298  00000+0  77056-3 0  9995
2 48212  87.8898  94.8854 0001906  97.4860 262.6487 13.14501856139287
ONEWEB-0180             
1 48213U 21031D   24068.78630002 -.00000171  00000+0 -49578-3 0  9997
2 48213  87.8895  94.9557 0001787  99.9958 260.1374 13.14502236139122
ONEWEB-0218             
1 48214U 21031E   24068.50400898  .00000093  00000+0  21582-3 0  9992
2 48214  87.8894  95.0136 0000940  68.3942 291.7288 13.14500415139244
ONEWEB-0209             
1 48215U 21031F   24068.79737822 -.00000157  00000+0 -45729-3 0  9996
2 48215  87.8896  94.9867 0001908  98.8322 261.3023 13.14500467139282
ONEWEB-0198             
1 48216U 21031G   24068.78152575 -.00000120  00000+0 -35884-3 0  9993
2 48216  87.8897  94.9954 0001466  95.2261 264.9036 13.14500661139394
ONEWEB-0189             
1 48217U 21031H   24068.79421532 -.00000177  00000+0 -51211-3 0  9991
2 48217  87.8895  94.9689 0001407  98.5962 261.5327 13.14501057139135
ONEWEB-0196             
1 48218U 21031J   24069.15260851  .00000077  00000+0  17414-3 0  9992
2 48218  87.8900  94.8992 0001820  91.1001 269.0337 13.14501281139178
ONEWEB-0183             
1 48219U 21031K   24069.12724437  .00000206  00000+0  52098-3 0  9996
2 48219  87.8898  94.9217 0001931  96.8935 263.2414 13.14501777139270
ONEWEB-0185             
1 48220U 21031L   24068.77280818  .00000006  00000+0 -17765-4 0  9990
2 48220  87.8897  94.9657 0001906 100.3211 259.8133 13.14500951139158
ONEWEB-0187             
1 48221U 21031M   24068.81879697  .00000225  00000+0  57360-3 0  9991
2 48221  87.8897  94.9877 0001942  99.6681 260.4668 13.14501290139174
ONEWEB-0192             
1 48222U 21031N   24068.79897792 -.00000137  00000+0 -40478-3 0  9991
2 48222  87.8898  94.9885 0001754  92.6964 267.4367 13.14501283139088
ONEWEB-0219             
1 48223U 21031P   24069.15894538  .00000037  00000+0  64504-4 0  9992
2 48223  87.8901  94.8914 0001859 100.3972 259.7368 13.14501639139347
ONEWEB-0202             
1 48224U 21031Q   24069.13992931  .00000334  00000+0  86654-3 0  9996
2 48224  87.8897  94.9156 0001045  91.2612 268.8637 13.14501650139328
ONEWEB-0204             
1 48225U 21031R   24068.79341555 -.00000169  00000+0 -49116-3 0  9998
2 48225  87.8896  94.9973 0002342  97.8607 262.2788 13.14500326139168
ONEWEB-0205             
1 48226U 21031S   24068.76884805  .00000083  00000+0  18801-3 0  9996
2 48226  87.8898  94.9730 0001820 100.4361 259.6974 13.14501161139176
ONEWEB-0206             
1 48227U 21031T   24068.81800429  .00000137  00000+0  33424-3 0  9991
2 48227  87.8893  94.9549 0001950 101.7863 258.3486 13.14501066139139
ONEWEB-0182             
1 48228U 21031U   24068.81325965  .00000132  00000+0  32122-3 0  9998
2 48228  87.8897  94.9786 0002120  95.7462 264.3910 13.14502103139349
ONEWEB-0186             
1 48229U 21031V   24068.82434556  .00000274  00000+0  70327-3 0  9993
2 48229  87.8898  94.9412 0001826  93.7378 266.3960 13.14501165139291
ONEWEB-0181             
1 48230U 21031W   24068.49768382 -.00000019  00000+0 -84803-4 0  9999
2 48230  87.8898  95.0751 0001720  92.7101 267.4226 13.14502275139107
ONEWEB-0188             
1 48231U 21031X   24069.14467836  .00000287  00000+0  73980-3 0  9991
2 48231  87.8899  94.9430 0001945  96.1887 263.9465 13.14500064139097
ONEWEB-0220             
1 48232U 21031Y   24068.49926865 -.00000020  00000+0 -87587-4 0  9997
2 48232  87.8890  95.0423 0001808 105.5517 254.5813 13.14502505139271
ONEWEB-0165             
1 48233U 21031Z   24069.13675825  .00000949  00000+0  25252-2 0  9994
2 48233  87.8900  94.9248 0001662 100.4800 259.6517 13.14498502139317
ONEWEB-0199             
1 48234U 21031AA  24068.81642885  .00000141  00000+0  34492-3 0  9990
2 48234  87.8895  94.9601 0001866  97.0593 263.0749 13.14502199139178
ONEWEB-0203             
1 48235U 21031AB  24068.80690926  .00000016  00000+0  97319-5 0  9999
2 48235  87.8896  94.9632 0001856  77.5528 282.5809 13.14501431139186
ONEWEB-0197             
1 48236U 21031AC  24068.78232000 -.00000139  00000+0 -40910-3 0  9993
2 48236  87.8896  94.9757 0002305  97.8285 262.3107 13.14500887139091
ONEWEB-0194             
1 48237U 21031AD  24069.14150348  .00000297  00000+0  76727-3 0  9997
2 48237  87.8900  94.8961 0002012  84.5018 275.6341 13.14500431139313
ONEWEB-0193             
1 48238U 21031AE  24068.77677557 -.00000026  00000+0 -10600-3 0  9992
2 48238  87.8900  94.9772 0001758  91.4065 268.7266 13.14501158139215
ONEWEB-0191             
1 48239U 21031AF  24068.78786689 -.00000149  00000+0 -43580-3 0  9990
2 48239  87.8895  94.9616 0001871  91.7983 268.3361 13.14500714139077
ONEWEB-0195             
1 48240U 21031AG  24069.14547076  .00000257  00000+0  65852-3 0  9992
2 48240  87.8896  94.8898 0001489 100.6872 259.4426 13.14500496139107
